{
    "links": {
        "self": "http://www.neowsapp.com/rest/v1/neo/3791337?api_key=iIulBulltgU6a56xZRHN4H3l9WmuAYTsLGpBGhQ2"
    },
    "id": "3791337",
    "neo_reference_id": "3791337",
    "name": "(2017 XL60)",
    "designation": "2017 XL60",
    "nasa_jpl_url": "http://ssd.jpl.nasa.gov/sbdb.cgi?sstr=3791337",
    "absolute_magnitude_h": 22.4,
    "estimated_diameter": {
        "kilometers": {
            "estimated_diameter_min": 0.0880146521,
            "estimated_diameter_max": 0.1968067451
        },
        "meters": {
            "estimated_diameter_min": 88.0146520901,
            "estimated_diameter_max": 196.8067450894
        },
        "miles": {
            "estimated_diameter_min": 0.0546897524,
            "estimated_diameter_max": 0.122290004
        },
        "feet": {
            "estimated_diameter_min": 288.7619911632,
            "estimated_diameter_max": 645.6914415591
        }
    },
    "is_potentially_hazardous_asteroid": false,
    "close_approach_data": [
        {
            "close_approach_date": "2017-12-07",
            "close_approach_date_full": "2017-Dec-07 09:11",
            "epoch_date_close_approach": 1512637860000,
            "relative_velocity": {
                "kilometers_per_second": "6.3196938588",
                "kilometers_per_hour": "22750.8978917442",
                "miles_per_hour": "14136.5231927896"
            },
            "miss_distance": {
                "astronomical": "0.2851379974",
                "lunar": "110.9186809886",
                "kilometers": "42656037.067105538",
                "miles": "26505232.3695429044"
            },
            "orbiting_body": "Earth"
        }
    ],
    "orbital_data": {
        "orbit_id": "4",
        "orbit_determination_date": "2017-12-26 06:24:00",
        "first_observation_date": "2017-12-12",
        "last_observation_date": "2017-12-25",
        "data_arc_in_days": 13,
        "observations_used": 31,
        "orbit_uncertainty": "7",
        "minimum_orbit_intersection": ".2599",
        "jupiter_tisserand_invariant": "3.033",
        "epoch_osculation": "2459000.5",
        "eccentricity": ".5639548886284037",
        "semi_major_axis": "2.842565313662249",
        "inclination": "9.84501246033793",
        "ascending_node_longitude": "268.480556286785",
        "orbital_period": "1750.508021730669",
        "perihelion_distance": "1.239486708776892",
        "perihelion_argument": "161.7064917135856",
        "aphelion_distance": "4.445643918547606",
        "perihelion_time": "2459830.924225121781",
        "mean_anomaly": "189.2194509635684",
        "mean_motion": ".205654584572586",
        "equinox": "J2000",
        "orbit_class": {
            "orbit_class_type": "AMO",
            "orbit_class_description": "Near-Earth asteroid orbits similar to that of 1221 Amor",
            "orbit_class_range": "1.017 AU < q (perihelion) < 1.3 AU"
        }
    },
    "is_sentry_object": false
}